[{"OBJECT_NAME":"QB50P2","OBJECT_ID":"2014-033Y","EPOCH":"2026-03-09T22:15:59.880096","MEAN_MOTION":15.13675048,"ECCENTRICITY":0.00085666,"INCLINATION":98.0738,"RA_OF_ASC_NODE":59.7545,"ARG_OF_PERICENTER":142.3387,"MEAN_ANOMALY":217.8444,"EPHEMERIS_TYPE":0,"CLASSIFICATION_TYPE":"U","NORAD_CAT_ID":40032,"ELEMENT_SET_NO":999,"REV_AT_EPOCH":63764,"BSTAR":0.00059145643,"MEAN_MOTION_DOT":0.00010584,"MEAN_MOTION_DDOT":0},{"OBJECT_NAME":"OBJECT A","OBJECT_ID":"2025-108A","EPOCH":"2026-03-09T23:49:23.118816","MEAN_MOTION":15.15153466,"ECCENTRICITY":0.00012868,"INCLINATION":97.483,"RA_OF_ASC_NODE":145.2164,"ARG_OF_PERICENTER":288.0162,"MEAN_ANOMALY":72.093,"EPHEMERIS_TYPE":0,"CLASSIFICATION_TYPE":"U","NORAD_CAT_ID":64087,"ELEMENT_SET_NO":999,"REV_AT_EPOCH":4429,"BSTAR":0.00036367028,"MEAN_MOTION_DOT":6.755e-5,"MEAN_MOTION_DDOT":0}]
